{
  "type": "FeatureCollection",
  "features": [
    {
      "type": "Feature",
      "properties": {
        "name": "Mombasa-Nairobi",
        "voltage": "400kV",
        "operator": "KETRACO"
      },
      "geometry": {
        "type": "LineString",
        "coordinates": [
          [
            39.63,
            -4.05
          ],
          [
            38.5,
            -2.98
          ],
          [
            37.95,
            -2.25
          ],
          [
            36.82,
            -1.29
          ]
        ]
      }
    },
    {
      "type": "Feature",
      "properties": {
        "name": "Suswa-Isinya-Nairobi",
        "voltage": "400kV",
        "operator": "KETRACO"
      },
      "geometry": {
        "type": "LineString",
        "coordinates": [
          [
            36.35,
            -1.05
          ],
          [
            36.85,
            -1.67
          ],
          [
            36.82,
            -1.29
          ]
        ]
      }
    },
    {
      "type": "Feature",
      "properties": {
        "name": "Olkaria-Suswa",
        "voltage": "220kV",
        "operator": "KETRACO"
      },
      "geometry": {
        "type": "LineString",
        "coordinates": [
          [
            36.29,
            -0.89
          ],
          [
            36.35,
            -1.05
          ]
        ]
      }
    },
    {
      "type": "Feature",
      "properties": {
        "name": "LTWP-Suswa",
        "voltage": "400kV",
        "operator": "KETRACO"
      },
      "geometry": {
        "type": "LineString",
        "coordinates": [
          [
            36.78,
            2.75
          ],
          [
            36.81,
            1.05
          ],
          [
            36.4,
            0.05
          ],
          [
            36.35,
            -1.05
          ]
        ]
      }
    },
    {
      "type": "Feature",
      "properties": {
        "name": "Olkaria-Lessos-Kisumu",
        "voltage": "220kV",
        "operator": "KETRACO"
      },
      "geometry": {
        "type": "LineString",
        "coordinates": [
          [
            36.29,
            -0.89
          ],
          [
            36.08,
            -0.28
          ],
          [
            35.28,
            0.51
          ],
          [
            34.76,
            -0.09
          ]
        ]
      }
    },
    {
      "type": "Feature",
      "properties": {
        "name": "Turkwel-Lessos",
        "voltage": "220kV",
        "operator": "KETRACO"
      },
      "geometry": {
        "type": "LineString",
        "coordinates": [
          [
            35.34,
            1.9
          ],
          [
            35.01,
            1.02
          ],
          [
            35.28,
            0.51
          ]
        ]
      }
    },
    {
      "type": "Feature",
      "properties": {
        "name": "Seven Forks-Nairobi",
        "voltage": "220kV",
        "operator": "KenGen/KETRACO"
      },
      "geometry": {
        "type": "LineString",
        "coordinates": [
          [
            37.81,
            -0.81
          ],
          [
            37.26,
            -0.72
          ],
          [
            36.82,
            -1.29
          ]
        ]
      }
    },
    {
      "type": "Feature",
      "properties": {
        "name": "Garissa-Kindaruma",
        "voltage": "220kV",
        "operator": "KETRACO"
      },
      "geometry": {
        "type": "LineString",
        "coordinates": [
          [
            39.64,
            -0.45
          ],
          [
            38.5,
            -0.6
          ],
          [
            37.81,
            -0.81
          ]
        ]
      }
    },
    {
      "type": "Feature",
      "properties": {
        "name": "Mombasa-Malindi-Lamu",
        "voltage": "220kV",
        "operator": "KETRACO"
      },
      "geometry": {
        "type": "LineString",
        "coordinates": [
          [
            39.55,
            -3.93
          ],
          [
            39.9,
            -3.51
          ],
          [
            40.11,
            -3.21
          ],
          [
            40.9,
            -2.26
          ]
        ]
      }
    }
  ]
}